[{"OBJECT_NAME":"STARLINK-1434","OBJECT_ID":"2020-035BH","EPOCH":"2026-03-09T05:47:35.213856","MEAN_MOTION":15.26724568,"ECCENTRICITY":0.00053438,"INCLINATION":53.0547,"RA_OF_ASC_NODE":22.1128,"ARG_OF_PERICENTER":88.04,"MEAN_ANOMALY":272.121,"EPHEMERIS_TYPE":0,"CLASSIFICATION_TYPE":"U","NORAD_CAT_ID":45712,"ELEMENT_SET_NO":999,"REV_AT_EPOCH":31932,"BSTAR":0.0020295208,"MEAN_MOTION_DOT":0.00054112,"MEAN_MOTION_DDOT":0},{"OBJECT_NAME":"STARLINK-32384","OBJECT_ID":"2024-224H","EPOCH":"2026-03-09T06:20:35.094048","MEAN_MOTION":15.27577303,"ECCENTRICITY":0.00010569,"INCLINATION":42.9979,"RA_OF_ASC_NODE":160.6213,"ARG_OF_PERICENTER":249.8965,"MEAN_ANOMALY":110.1773,"EPHEMERIS_TYPE":0,"CLASSIFICATION_TYPE":"U","NORAD_CAT_ID":62146,"ELEMENT_SET_NO":999,"REV_AT_EPOCH":7241,"BSTAR":0.0011798157,"MEAN_MOTION_DOT":0.00032344,"MEAN_MOTION_DDOT":0}]
